{
    "links": {
        "self": "http://www.neowsapp.com/rest/v1/neo/3324658?api_key=iIulBulltgU6a56xZRHN4H3l9WmuAYTsLGpBGhQ2"
    },
    "id": "3324658",
    "neo_reference_id": "3324658",
    "name": "(2006 DT63)",
    "designation": "2006 DT63",
    "nasa_jpl_url": "http://ssd.jpl.nasa.gov/sbdb.cgi?sstr=3324658",
    "absolute_magnitude_h": 22.3,
    "estimated_diameter": {
        "kilometers": {
            "estimated_diameter_min": 0.0921626549,
            "estimated_diameter_max": 0.2060819612
        },
        "meters": {
            "estimated_diameter_min": 92.1626548503,
            "estimated_diameter_max": 206.0819612321
        },
        "miles": {
            "estimated_diameter_min": 0.057267201,
            "estimated_diameter_max": 0.1280533543
        },
        "feet": {
            "estimated_diameter_min": 302.370924539,
            "estimated_diameter_max": 676.1219416887
        }
    },
    "is_potentially_hazardous_asteroid": false,
    "close_approach_data": [
        {
            "close_approach_date": "1994-11-06",
            "close_approach_date_full": "1994-Nov-06 23:49",
            "epoch_date_close_approach": 784165740000,
            "relative_velocity": {
                "kilometers_per_second": "11.4949760099",
                "kilometers_per_hour": "41381.9136356951",
                "miles_per_hour": "25713.1118365795"
            },
            "miss_distance": {
                "astronomical": "0.0781207806",
                "lunar": "30.3889836534",
                "kilometers": "11686702.380497322",
                "miles": "7261780.1260221636"
            },
            "orbiting_body": "Mars"
        },
        {
            "close_approach_date": "2006-03-10",
            "close_approach_date_full": "2006-Mar-10 14:30",
            "epoch_date_close_approach": 1142001000000,
            "relative_velocity": {
                "kilometers_per_second": "3.3777842883",
                "kilometers_per_hour": "12160.0234380226",
                "miles_per_hour": "7555.7656745869"
            },
            "miss_distance": {
                "astronomical": "0.2786804042",
                "lunar": "108.4066772338",
                "kilometers": "41689994.879059054",
                "miles": "25904961.5888167852"
            },
            "orbiting_body": "Earth"
        }
    ],
    "orbital_data": {
        "orbit_id": "12",
        "orbit_determination_date": "2017-04-06 09:09:00",
        "first_observation_date": "2006-02-27",
        "last_observation_date": "2006-04-19",
        "data_arc_in_days": 51,
        "observations_used": 42,
        "orbit_uncertainty": "6",
        "minimum_orbit_intersection": ".273978",
        "jupiter_tisserand_invariant": "3.370",
        "epoch_osculation": "2459000.5",
        "eccentricity": ".4701594979736288",
        "semi_major_axis": "2.38904362800234",
        "inclination": "4.704906831900209",
        "ascending_node_longitude": "335.765339290312",
        "orbital_period": "1348.759597451354",
        "perihelion_distance": "1.265812075223663",
        "perihelion_argument": "188.9927263381754",
        "aphelion_distance": "3.512275180781017",
        "perihelion_time": "2459184.509357779217",
        "mean_anomaly": "310.8857108963726",
        "mean_motion": ".2669119097875291",
        "equinox": "J2000",
        "orbit_class": {
            "orbit_class_type": "AMO",
            "orbit_class_description": "Near-Earth asteroid orbits similar to that of 1221 Amor",
            "orbit_class_range": "1.017 AU < q (perihelion) < 1.3 AU"
        }
    },
    "is_sentry_object": false
}